NORAD_CAT_ID,OBJECT_NAME,OBJECT_TYPE,EPOCH,MEAN_MOTION,ECCENTRICITY,INCLINATION,RA_OF_ASC_NODE,ARG_OF_PERICENTER,MEAN_ANOMALY,BSTAR,MEAN_MOTION_DOT,MEAN_MOTION_DDOT,TLE_LINE0,TLE_LINE1,TLE_LINE2,SEMIMAJOR_AXIS,PERIOD,APOGEE,PERIGEE,DECAYED
56813.0,STARLINK-6056,PAYLOAD,2024-01-27 14:30:15,14.98326941,0.0002615,70.0006,130.9868,249.6968,110.3911,-5.143e-05,-7.06e-06,0.0,0 STARLINK-6056,1 56813U 23078AY  24027.60434577 -.00000706  00000-0 -51430-4 0  9996,2 56813  70.0006 130.9868 0002615 249.6968 110.3911 14.98326941 37037,6950.202,96.107,573.885,570.25,0.0
56813.0,STARLINK-6056,PAYLOAD,2024-01-27 16:06:23,14.98327771,0.0002617,70.0007,130.8189,248.1093,111.9788,-5.8173e-05,-7.87e-06,0.0,0 STARLINK-6056,1 56813U 23078AY  24027.67110536 -.00000787  00000-0 -58173-4 0  9999,2 56813  70.0007 130.8189 0002617 248.1093 111.9788 14.98327771 37040,6950.2,96.107,573.884,570.246,0.0
56813.0,STARLINK-6056,PAYLOAD,2024-01-28 03:19:20,14.98329125,0.0002983,69.9986,129.6379,281.6943,78.3881,-0.0001605,-2.007e-05,0.0,0 STARLINK-6056,1 56813U 23078AY  24028.13842778 -.00002007  00000-0 -16050-3 0  9995,2 56813  69.9986 129.6379 0002983 281.6943  78.3881 14.98329125 37373,6950.196,96.107,574.134,569.987,0.0
56813.0,STARLINK-6056,PAYLOAD,2024-01-28 14:32:16,14.98331379,0.0003146,69.9988,128.4598,268.64,91.4399,-4.8481e-05,-6.71e-06,0.0,0 STARLINK-6056,1 56813U 23078AY  24028.60574314 -.00000671  00000-0 -48481-4 0  9994,2 56813  69.9988 128.4598 0003146 268.6400  91.4399 14.98331379 37183,6950.189,96.107,574.24,569.867,0.0
56813.0,STARLINK-6056,PAYLOAD,2024-01-28 19:20:40,14.98335238,0.0003212,69.9988,127.9548,269.9645,90.1146,-6.3669e-07,-1.01e-06,0.0,0 STARLINK-6056,1 56813U 23078AY  24028.80601870 -.00000101  00000-0 -63669-6 0  9999,2 56813  69.9988 127.9548 0003212 269.9645  90.1146 14.98335238 37477,6950.177,96.107,574.274,569.809,0.0
56813.0,STARLINK-6056,PAYLOAD,2024-01-28 20:56:48,14.98335214,0.0003232,69.9988,127.7865,270.53,89.5489,-2.4567e-05,-3.86e-06,0.0,0 STARLINK-6056,1 56813U 23078AY  24028.87277888 -.00000386  00000-0 -24567-4 0  9991,2 56813  69.9988 127.7865 0003232 270.5300  89.5489 14.98335214 37224,6950.177,96.107,574.288,569.795,0.0
56813.0,STARLINK-6056,PAYLOAD,2024-01-29 19:22:39,14.98343765,0.0003292,69.9988,125.4298,269.4726,90.6056,0.00016083,1.827e-05,0.0,0 STARLINK-6056,1 56813U 23078AY  24029.80740679  .00001827  00000-0  16083-3 0  9990,2 56813  69.9988 125.4298 0003292 269.4726  90.6056 14.98343765 37621,6950.15,96.106,574.303,569.727,0.0
56813.0,STARLINK-6056,PAYLOAD,2024-01-29 20:58:49,14.98320415,0.0003158,69.9988,125.2616,274.1814,85.8985,-0.00011407,-1.453e-05,0.0,0 STARLINK-6056,1 56813U 23078AY  24029.87418843 -.00001453  00000-0 -11407-3 0  9994,2 56813  69.9988 125.2616 0003158 274.1814  85.8985 14.98320415 37371,6950.223,96.108,574.282,569.893,0.0
56813.0,STARLINK-6056,PAYLOAD,2024-01-30 03:23:22,14.98321416,0.0003213,69.9988,124.5883,271.9775,88.1016,-7.585e-05,-9.98e-06,0.0,0 STARLINK-6056,1 56813U 23078AY  24030.14122766 -.00000998  00000-0 -75850-4 0  9998,2 56813  69.9988 124.5883 0003213 271.9775  88.1016 14.98321416 37678,6950.219,96.108,574.318,569.851,0.0
56813.0,STARLINK-6056,PAYLOAD,2024-01-30 14:36:17,14.9832794,0.0003221,69.9988,123.41,272.2746,87.8044,6.4765e-05,6.8e-06,0.0,0 STARLINK-6056,1 56813U 23078AY  24030.60854132  .00000680  00000-0  64765-4 0  9997,2 56813  69.9988 123.4100 0003221 272.2746  87.8044 14.98327940 37483,6950.199,96.107,574.303,569.826,0.0
56813.0,STARLINK-6056,PAYLOAD,2024-01-30 19:24:41,14.98333922,0.0003215,69.9988,122.9049,271.9717,88.1074,7.4553e-05,7.97e-06,0.0,0 STARLINK-6056,1 56813U 23078AY  24030.80881693  .00000797  00000-0  74553-4 0  9996,2 56813  69.9988 122.9049 0003215 271.9717  88.1074 14.98333922 37772,6950.181,96.107,574.28,569.811,0.0
56813.0,STARLINK-6056,PAYLOAD,2024-01-30 21:00:49,14.98334589,0.0003214,69.9988,122.7366,272.0034,88.0756,6.2724e-05,6.56e-06,0.0,0 STARLINK-6056,1 56813U 23078AY  24030.87557655  .00000656  00000-0  62724-4 0  9992,2 56813  69.9988 122.7366 0003214 272.0034  88.0756 14.98334589 37524,6950.179,96.107,574.277,569.81,0.0
56813.0,STARLINK-6056,PAYLOAD,2024-01-31 03:25:22,14.98327939,0.00032,69.9988,122.0634,271.3161,88.7631,-4.7015e-05,-6.54e-06,0.0,0 STARLINK-6056,1 56813U 23078AY  24031.14262366 -.00000654  00000-0 -47015-4 0  9991,2 56813  69.9988 122.0634 0003200 271.3161  88.7631 14.98327939 37826,6950.199,96.107,574.288,569.84,0.0
56813.0,STARLINK-6056,PAYLOAD,2024-01-31 11:26:02,14.98334396,0.0003214,69.9988,121.2218,271.323,88.7561,2.3918e-05,1.92e-06,0.0,0 STARLINK-6056,1 56813U 23078AY  24031.47641758  .00000192  00000-0  23918-4 0  9994,2 56813  69.9988 121.2218 0003214 271.3230  88.7561 14.98334396 37879,6950.179,96.107,574.278,569.811,0.0
56813.0,STARLINK-6056,PAYLOAD,2024-01-31 13:02:10,14.98334999,0.0003215,69.9988,121.0535,271.3994,88.6797,2.319e-05,1.84e-06,0.0,0 STARLINK-6056,1 56813U 23078AY  24031.54317702  .00000184  00000-0  23190-4 0  9994,2 56813  69.9988 121.0535 0003215 271.3994  88.6797 14.98334999 37629,6950.177,96.107,574.277,569.808,0.0
56813.0,STARLINK-6056,PAYLOAD,2024-01-31 21:02:50,14.983412,0.0003206,69.9988,120.2118,271.5362,88.543,1.9053e-05,1.34e-06,0.0,0 STARLINK-6056,1 56813U 23078AY  24031.87697129  .00000134  00000-0  19053-4 0  9992,2 56813  69.9988 120.2118 0003206 271.5362  88.5430 14.98341200 37679,6950.158,96.106,574.251,569.795,0.0
56813.0,STARLINK-6056,PAYLOAD,2024-02-01 03:27:23,14.98329558,0.0003209,69.9988,119.5387,270.0423,90.0368,-0.00018062,-2.247e-05,0.0,0 STARLINK-6056,1 56813U 23078AY  24032.14402369 -.00002247  00000-0 -18062-3 0  9990,2 56813  69.9988 119.5387 0003209 270.0423  90.0368 14.98329558 37976,6950.194,96.107,574.29,569.829,0.0
56813.0,STARLINK-6056,PAYLOAD,2024-02-01 13:04:11,14.98324908,0.0003137,69.9988,118.5287,269.8797,90.2003,4.4346e-05,4.36e-06,0.0,0 STARLINK-6056,1 56813U 23078AY  24032.54458310  .00000436  00000-0  44346-4 0  9992,2 56813  69.9988 118.5287 0003137 269.8797  90.2003 14.98324908 37774,6950.209,96.107,574.254,569.893,0.0
56813.0,STARLINK-6056,PAYLOAD,2024-02-01 19:28:43,14.9833173,0.0003146,69.9987,117.8552,270.3556,89.7243,3.7668e-05,3.56e-06,0.0,0 STARLINK-6056,1 56813U 23078AY  24032.81161903  .00000356  00000-0  37668-4 0  9991,2 56813  69.9987 117.8552 0003146 270.3556  89.7243 14.98331730 37815,6950.188,96.107,574.239,569.866,0.0
56813.0,STARLINK-6056,PAYLOAD,2024-02-02 03:29:24,14.98327434,0.0003124,69.9987,117.0138,269.4566,90.6235,8.243e-06,5e-08,0.0,0 STARLINK-6056,1 56813U 23078AY  24033.14542261  .00000005  00000-0  82430-5 0  9997,2 56813  69.9987 117.0138 0003124 269.4566  90.6235 14.98327434 38126,6950.201,96.107,574.237,569.895,0.0
56813.0,STARLINK-6056,PAYLOAD,2024-02-02 14:42:20,14.98335286,0.0003119,69.9987,115.8354,269.4803,90.5998,6.9805e-05,7.4e-06,0.0,0 STARLINK-6056,1 56813U 23078AY  24033.61273581  .00000740  00000-0  69805-4 0  9991,2 56813  69.9987 115.8354 0003119 269.4803  90.5998 14.98335286 37937,6950.177,96.107,574.209,569.874,0.0
56813.0,STARLINK-6056,PAYLOAD,2024-02-02 17:54:36,14.98338984,0.0003108,69.9987,115.4987,269.6716,90.4087,8.1882e-05,8.84e-06,0.0,0 STARLINK-6056,1 56813U 23078AY  24033.74625261  .00000884  00000-0  81882-4 0  9999,2 56813  69.9987 115.4987 0003108 269.6716  90.4087 14.98338984 38216,6950.165,96.106,574.19,569.87,0.0
56813.0,STARLINK-6056,PAYLOAD,2024-02-02 19:30:44,14.98339664,0.0003128,69.9987,115.3304,269.5611,90.519,6.456e-05,6.78e-06,0.0,0 STARLINK-6056,1 56813U 23078AY  24033.81301211  .00000678  00000-0  64560-4 0  9998,2 56813  69.9987 115.3304 0003128 269.5611  90.5190 14.98339664 37966,6950.163,96.106,574.202,569.854,0.0
56813.0,STARLINK-6056,PAYLOAD,2024-02-03 11:32:05,14.9832268,0.0003104,69.9987,113.6472,268.6985,91.3818,3.1361e-05,2.81e-06,0.0,0 STARLINK-6056,1 56813U 23078AY  24034.48062454  .00000281  00000-0  31361-4 0  9998,2 56813  69.9987 113.6472 0003104 268.6985  91.3818 14.98322680 38328,6950.216,96.107,574.238,569.923,0.0
56813.0,STARLINK-6056,PAYLOAD,2024-02-03 13:08:13,14.9832586,0.0003094,69.9987,113.4789,268.3879,91.6925,4.764e-05,4.75e-06,0.0,0 STARLINK-6056,1 56813U 23078AY  24034.54738182  .00000475  00000-0  47640-4 0  9995,2 56813  69.9987 113.4789 0003094 268.3879  91.6925 14.98325860 38071,6950.206,96.107,574.221,569.92,0.0
56813.0,STARLINK-6056,PAYLOAD,2024-02-03 14:44:21,14.9832783,0.0003097,69.9987,113.3106,268.3323,91.7481,6.0287e-05,6.26e-06,0.0,0 STARLINK-6056,1 56813U 23078AY  24034.61414023  .00000626  00000-0  60287-4 0  9998,2 56813  69.9987 113.3106 0003097 268.3323  91.7481 14.98327830 38088,6950.2,96.107,574.217,569.912,0.0
56813.0,STARLINK-6056,PAYLOAD,2024-02-04 14:46:22,14.98336062,0.0003037,69.9986,110.7855,270.7477,89.3334,4.694e-05,4.67e-06,0.0,0 STARLINK-6056,1 56813U 23078AY  24035.61553448  .00000467  00000-0  46940-4 0  9997,2 56813  69.9986 110.7855 0003037 270.7477  89.3334 14.98336062 38234,6950.174,96.107,574.15,569.928,0.0
56813.0,STARLINK-6056,PAYLOAD,2024-02-05 11:36:07,14.9832779,0.0002719,69.9995,108.5983,266.5933,93.4915,1.8049e-07,-9.1e-07,0.0,0 STARLINK-6056,1 56813U 23078AY  24036.48342120 -.00000091  00000-0  18049-6 0  9991,2 56813  69.9995 108.5983 0002719 266.5933  93.4915 14.98327790 38629,6950.2,96.107,573.954,570.175,0.0
56813.0,STARLINK-6056,PAYLOAD,2024-02-05 13:12:15,14.98327957,0.0002714,69.9995,108.4299,266.6514,93.4335,2.5971e-06,-6.2e-07,0.0,0 STARLINK-6056,1 56813U 23078AY  24036.55018111 -.00000062  00000-0  25971-5 0  9998,2 56813  69.9995 108.4299 0002714 266.6514  93.4335 14.98327957 38372,6950.199,96.107,573.95,570.178,0.0
56813.0,STARLINK-6056,PAYLOAD,2024-02-05 14:48:23,14.98328191,0.000271,69.9995,108.2615,266.6925,93.3924,5.2041e-06,-3.1e-07,0.0,0 STARLINK-6056,1 56813U 23078AY  24036.61694095 -.00000031  00000-0  52041-5 0  9990,2 56813  69.9995 108.2615 0002710 266.6925  93.3924 14.98328191 38389,6950.198,96.107,573.947,570.18,0.0
